NORAD_CAT_ID,OBJECT_NAME,OBJECT_TYPE,EPOCH,MEAN_MOTION,ECCENTRICITY,INCLINATION,RA_OF_ASC_NODE,ARG_OF_PERICENTER,MEAN_ANOMALY,BSTAR,MEAN_MOTION_DOT,MEAN_MOTION_DDOT,TLE_LINE0,TLE_LINE1,TLE_LINE2,SEMIMAJOR_AXIS,PERIOD,APOGEE,PERIGEE,DECAYED
50168.0,STARLINK-3296,PAYLOAD,2022-03-16 20:00:01,15.19024599,0.0001503,53.2174,296.0116,50.3136,320.6923,-0.033529,-0.00666103,0.0,0 STARLINK-3296,1 50168U 21125N   22075.83334491 -.00666103  00000-0 -33529-1 0  9999,2 50168  53.2174 296.0116 0001503  50.3136 320.6923 15.19024599  3638,6886.924,94.798,509.824,507.754,0.0
50168.0,STARLINK-3296,PAYLOAD,2022-03-17 06:00:00,15.18440541,0.0001389,53.2173,294.1105,64.9211,65.4337,-0.034042,-0.00664979,0.0,0 STARLINK-3296,1 50168U 21125N   22076.25001157 -.00664979  00000-0 -34042-1 0  9996,2 50168  53.2173 294.1105 0001389  64.9211  65.4337 15.18440541 14083,6888.69,94.834,511.512,509.598,0.0
50168.0,STARLINK-3296,PAYLOAD,2022-03-17 14:00:01,15.17974412,0.0001598,53.2176,292.5901,53.7204,99.4825,-0.034512,-0.0066513,0.0,0 STARLINK-3296,1 50168U 21125N   22076.58334491 -.00665130  00000-0 -34512-1 0  9994,2 50168  53.2176 292.5901 0001598  53.7204  99.4825 15.17974412  3649,6890.1,94.863,513.066,510.864,0.0
50168.0,STARLINK-3296,PAYLOAD,2022-03-17 22:00:00,15.17507518,0.0001702,53.2174,291.0738,51.3002,124.1891,-0.034997,-0.00665432,0.0,0 STARLINK-3296,1 50168U 21125N   22076.91667824 -.00665432  00000-0 -34997-1 0  9992,2 50168  53.2174 291.0738 0001702  51.3002 124.1891 15.17507518  3655,6891.513000000001,94.892,514.5509999999998,512.205,0.0
50168.0,STARLINK-3296,PAYLOAD,2022-03-18 08:00:01,15.16921747,0.0001422,53.217,289.1769,58.6421,233.9191,-0.035356,-0.00661258,0.0,0 STARLINK-3296,1 50168U 21125N   22077.33334491 -.00661258  00000-0 -35356-1 0  9992,2 50168  53.2170 289.1769 0001422  58.6421 233.9191 15.16921747 14249,6893.2869999999975,94.929,516.133,514.172,0.0
50168.0,STARLINK-3296,PAYLOAD,2022-03-18 14:00:01,15.16574503,0.000155,53.2175,288.0388,61.4969,156.8855,-0.035896,-0.00664492,0.0,0 STARLINK-3296,1 50168U 21125N   22077.58334491 -.00664492  00000-0 -35896-1 0  9991,2 50168  53.2175 288.0388 0001550  61.4969 156.8855 15.16574503  3657,6894.34,94.951,517.273,515.136,0.0
50168.0,STARLINK-3296,PAYLOAD,2022-03-18 22:00:00,15.16107017,0.0001615,53.2175,286.5255,58.0142,180.9731,-0.036339,-0.00663793,0.0,0 STARLINK-3296,1 50168U 21125N   22077.91667824 -.00663793  00000-0 -36339-1 0  9993,2 50168  53.2175 286.5255 0001615  58.0142 180.9731 15.16107017  3709,6895.757,94.98,518.735,516.508,0.0
50168.0,STARLINK-3296,PAYLOAD,2022-03-19 14:00:01,15.15174274,0.000145,53.2176,283.497,66.3174,212.1992,-0.037303,-0.00663499,0.0,0 STARLINK-3296,1 50168U 21125N   22078.58334491 -.00663499  00000-0 -37303-1 0  9993,2 50168  53.2176 283.4970 0001450  66.3174 212.1992 15.15174274 14431,6898.587,95.039,521.452,519.451,0.0
50168.0,STARLINK-3296,PAYLOAD,2022-03-19 22:00:01,15.14707541,0.0001527,53.2176,281.9871,58.0878,239.4145,-0.037835,-0.00664059,0.0,0 STARLINK-3296,1 50168U 21125N   22078.91668981 -.00664059  00000-0 -37835-1 0  9997,2 50168  53.2176 281.9871 0001527  58.0878 239.4145 15.14707541  3650,6900.004,95.068,522.922,520.815,0.0
50168.0,STARLINK-3296,PAYLOAD,2022-03-20 14:00:01,15.13774271,0.00014,53.2177,278.9652,61.2661,272.3388,-0.038789,-0.00663092,0.0,0 STARLINK-3296,1 50168U 21125N   22079.58334491 -.00663092  00000-0 -38789-1 0  9992,2 50168  53.2177 278.9652 0001400  61.2661 272.3388 15.13774271  3625,6902.839,95.126,525.6709999999998,523.738,0.0
50168.0,STARLINK-3296,PAYLOAD,2022-03-20 22:00:01,15.13308209,0.0001409,53.2176,277.4585,60.8664,290.0421,-0.039416,-0.00664887,0.0,0 STARLINK-3296,1 50168U 21125N   22079.91668981 -.00664887  00000-0 -39416-1 0  9994,2 50168  53.2176 277.4585 0001409  60.8664 290.0421 15.13308209 14632,6904.255999999999,95.156,527.094,525.149,0.0
50168.0,STARLINK-3296,PAYLOAD,2022-03-21 14:00:01,15.12374554,0.0001377,53.2176,274.4432,61.3026,322.3448,-0.040367,-0.00663386,0.0,0 STARLINK-3296,1 50168U 21125N   22080.58334491 -.00663386  00000-0 -40367-1 0  9995,2 50168  53.2176 274.4432 0001377  61.3026 322.3448 15.12374554  3622,6907.098000000001,95.215,529.914,528.012,0.0
50168.0,STARLINK-3296,PAYLOAD,2022-03-21 22:00:00,15.1190821,0.0001419,53.2176,272.9396,58.1956,341.0105,-0.040984,-0.00664703,0.0,0 STARLINK-3296,1 50168U 21125N   22080.91667824 -.00664703  00000-0 -40984-1 0  9990,2 50168  53.2176 272.9396 0001419  58.1956 341.0105 15.11908210  3637,6908.518,95.244,531.363,529.403,0.0
50168.0,STARLINK-3296,PAYLOAD,2022-03-22 06:00:00,15.11343338,0.0001255,53.2164,271.4355,52.9538,1.3030000000000002,-0.032741,-0.00525169,0.0,0 STARLINK-3296,1 50168U 21125N   22081.25001157 -.00525169  00000-0 -32741-1 0  9993,2 50168  53.2164 271.4355 0001255  52.9538   1.3030 15.11343338 14841,6910.239000000001,95.279,532.971,531.237,0.0
50168.0,STARLINK-3296,PAYLOAD,2022-03-22 14:00:01,15.10974872,0.0001439,53.2175,269.9308,58.1995,10.4447,-0.042003,-0.00663783,0.0,0 STARLINK-3296,1 50168U 21125N   22081.58334491 -.00663783  00000-0 -42003-1 0  9996,2 50168  53.2175 269.9308 0001439  58.1995  10.4447 15.10974872 14892,6911.363,95.303,534.222,532.2330000000002,0.0
50168.0,STARLINK-3296,PAYLOAD,2022-03-22 22:00:01,15.10507352,0.0001468,53.2175,268.4304,57.2332,25.3512,-0.042501,-0.00663035,0.0,0 STARLINK-3296,1 50168U 21125N   22081.91668981 -.00663035  00000-0 -42501-1 0  9990,2 50168  53.2175 268.4304 0001468  57.2332  25.3512 15.10507352  3632,6912.7890000000025,95.332,535.668,533.639,0.0
50168.0,STARLINK-3296,PAYLOAD,2022-03-23 14:00:01,15.09576118,0.0001534,53.2175,265.4283,57.3021,51.293,-0.043856,-0.00666528,0.0,0 STARLINK-3296,1 50168U 21125N   22082.58334491 -.00666528  00000-0 -43856-1 0  9994,2 50168  53.2175 265.4283 0001534  57.3021  51.2930 15.09576118  3642,6915.630999999999,95.391,538.557,536.435,0.0
50168.0,STARLINK-3296,PAYLOAD,2022-03-23 22:00:00,15.08972553,0.0001481,53.2175,263.9318,57.5309,63.2808,-0.012937,-0.00201213,0.0,0 STARLINK-3296,1 50168U 21125N   22082.91667824 -.00201213  00000-0 -12937-1 0  9992,2 50168  53.2175 263.9318 0001481  57.5309  63.2808 15.08972553 15097,6917.475,95.429,540.365,538.316,0.0
50168.0,STARLINK-3296,PAYLOAD,2022-03-24 06:00:00,15.08837259,0.0001385999999999,53.2175,262.4335,68.4543,64.023,-3.3167e-05,-8.16e-06,0.0,0 STARLINK-3296,1 50168U 21125N   22083.25001157 -.00000816  00000-0 -33167-4 0  9998,2 50168  53.2175 262.4335 0001386  68.4543  64.0230 15.08837259 15142,6917.889,95.438,540.7130000000002,538.795,0.0
50168.0,STARLINK-3296,PAYLOAD,2022-03-24 14:00:01,15.08846537,0.0001626,53.213,260.9449,68.5792,75.4905,-0.0014814,-0.00023791,0.0,0 STARLINK-3296,1 50168U 21125N   22083.58334491 -.00023791  00000-0 -14814-2 0  9997,2 50168  53.2130 260.9449 0001626  68.5792  75.4905 15.08846537  3620,6917.86,95.437,540.85,538.601,0.0
50168.0,STARLINK-3296,PAYLOAD,2022-03-24 22:00:00,15.08816773,0.0001691,53.2128,259.4506,60.1245,95.5574,0.0031177,0.00049649,0.0,0 STARLINK-3296,1 50168U 21125N   22083.91667824  .00049649  00000-0  31177-2 0  9992,2 50168  53.2128 259.4506 0001691  60.1245  95.5574 15.08816773  3643,6917.951,95.439,540.986,538.6469999999998,0.0
50168.0,STARLINK-3296,PAYLOAD,2022-03-25 14:00:01,15.0886869,0.0001641999999999,53.2131,256.4562,67.4492,111.4266,-0.0011177,-0.00018046,0.0,0 STARLINK-3296,1 50168U 21125N   22084.58334491 -.00018046  00000-0 -11177-2 0  9994,2 50168  53.2131 256.4562 0001642  67.4492 111.4266 15.08868690 15347,6917.793000000002,95.436,540.794,538.5219999999998,0.0
50168.0,STARLINK-3296,PAYLOAD,2022-03-25 22:00:01,15.08836584,0.0001721999999999,53.213,254.9611,59.2792,131.2898,0.0033674,0.00053708,0.0,0 STARLINK-3296,1 50168U 21125N   22084.91668981  .00053708  00000-0  33674-2 0  9993,2 50168  53.2130 254.9611 0001722  59.2792 131.2898 15.08836584  3632,6917.891,95.438,540.947,538.565,0.0
50168.0,STARLINK-3296,PAYLOAD,2022-03-26 06:00:00,15.08868906,0.000155,53.213,253.4628,65.2073,136.9202,-0.00080438,-0.00013077,0.0,0 STARLINK-3296,1 50168U 21125N   22085.25001157 -.00013077  00000-0 -80438-3 0  9995,2 50168  53.2130 253.4628 0001550  65.2073 136.9202 15.08868906 15448,6917.792,95.436,540.729,538.585,0.0
50168.0,STARLINK-3296,PAYLOAD,2022-03-26 14:00:01,15.08865096,0.0001585,53.2159,251.9617,64.5111,149.2072,-0.00283,-0.00045077,0.0,0 STARLINK-3296,1 50168U 21125N   22085.58334491 -.00045077  00000-0 -28300-2 0  9995,2 50168  53.2159 251.9617 0001585  64.5111 149.2072 15.08865096 15497,6917.804,95.436,540.765,538.572,0.0
50168.0,STARLINK-3296,PAYLOAD,2022-03-26 22:00:00,15.08835381,0.0001645,53.2128,250.4716,57.8204,167.5092,0.002293,0.00036389,0.0,0 STARLINK-3296,1 50168U 21125N   22085.91667824  .00036389  00000-0  22930-2 0  9998,2 50168  53.2128 250.4716 0001645  57.8204 167.5092 15.08835381  3623,6917.895,95.438,540.898,538.622,0.0
50168.0,STARLINK-3296,PAYLOAD,2022-03-27 06:00:00,15.08834629,0.0001545,53.2128,248.9732,65.4223,171.5264,0.0004762,7.298e-05,0.0,0 STARLINK-3296,1 50168U 21125N   22086.25001157  .00007298  00000-0  47620-3 0  9998,2 50168  53.2128 248.9732 0001545  65.4223 171.5264 15.08834629 15597,6917.897,95.438,540.831,538.693,0.0
50168.0,STARLINK-3296,PAYLOAD,2022-03-27 14:00:01,15.08859557,0.0001612,53.2129,247.4774,66.2038,182.337,-0.0010668,-0.00017235,0.0,0 STARLINK-3296,1 50168U 21125N   22086.58334491 -.00017235  00000-0 -10668-2 0  9999,2 50168  53.2129 247.4774 0001612  66.2038 182.3370 15.08859557  3633,6917.821,95.436,540.8009999999998,538.57,0.0
50168.0,STARLINK-3296,PAYLOAD,2022-03-27 22:00:01,15.08843832,0.0001629999999999,53.2125,245.9819,58.5976,201.6172,3.5318e-05,2.74e-06,0.0,0 STARLINK-3296,1 50168U 21125N   22086.91668981  .00000274  00000-0  35318-4 0  9994,2 50168  53.2125 245.9819 0001630  58.5976 201.6172 15.08843832  3620,6917.869000000002,95.437,540.861,538.606,0.0
